CALSPHERE 1             
1 00900U 64063C   16021.78871339  .00000370  00000-0  39278-3 0  9996
2 00900  90.1403   3.8238 0025296 209.0418 150.9340 13.72628652549710
CALSPHERE 2             
1 00902U 64063E   16020.94180846  .00000028  00000-0  27692-4 0  9999
2 00902  90.1437   6.1310 0020162  97.5668 320.8631 13.52626321342508
LCS 1                   
1 01361U 65034C   16021.94125374  .00000015  00000-0  84933-3 0  9990
2 01361  32.1363 197.6677 0007113  24.5452 335.5383  9.89289405833983
TEMPSAT 1               
1 01512U 65065E   16021.63726318  .00000049  00000-0  78416-4 0  9990
2 01512  89.8036 251.5929 0071499 116.4511 272.3839 13.33387390453687
CALSPHERE 4(A)          
1 01520U 65065H   16022.22394279  .00000064  00000-0  10761-3 0  9997
2 01520  90.1053 118.0811 0068943  17.7802  39.5248 13.35685256455912
OPS 5712 (P/L 160)      
1 02826U 67053A   16021.86120531  .00001491  00000-0  42634-3 0  9992
2 02826  69.9298 358.1282 0004788 339.5441  20.5498 14.46989975514547
OPS 5712 (P/L 153)      
1 02874U 67053H   16022.21414318 -.00000020  00000-0  24421-4 0  9997
2 02874  69.9751 332.8268 0004289  84.6071  45.8793 13.96250656476906
SURCAL 150B             
1 02909U 67053J   16021.70091276  .00002404  00000-0  52711-3 0  9992
2 02909  69.9506  93.6153 0003650 212.7899 147.3014 14.58849961522471
RIGIDSPHERE 2 (LCS 4)   
1 05398U 71067E   16021.79817539  .00000311  00000-0  10385-3 0  9990
2 05398  87.6248 307.5169 0063685 172.7133 187.5005 14.33360648329384
